basin,cnty_abbr,name,prelim_yn,county_name,site,state,latitude,longitude,aqs_id,qa_id,district,met_id,elevation,address,city,zip_code,otemp2018obs 
SFB,ALA,9414750-Alameda,N,Alameda,6943,CA,37.770000000000003,-122.3,,,BA,,0,,Alameda,,83640 
SFB,ALA,Chabot,N,Alameda,3425,CA,37.719999999999999,-122.09,,,BA,RCAB,142,,Castro Valley,94546,8756 
SFB,ALA,Hayward Air Terminal,N,Alameda,5309,CA,37.660800000000002,-122.11799999999999,,,BA,KHWD,11,,Hayward,94545,10535 
SFB,ALA,Livermore Municipal Airport,N,Alameda,5316,CA,37.692799999999998,-121.81399999999999,,,BA,KLVK,121,,Livermore,94551,10438 
SFB,ALA,Oakland International Airport,N,Alameda,2710,CA,37.75,-122.216666,,,BA,KOAK,0,,Oakland,0,10204 
SFB,ALA,Oakland South,N,Alameda,3300,CA,37.783056000000002,-122.15000000000001,,,BA,ROSO,237,RAWS Station CA4A15A2,Oakland,94619,8723 
SFB,ALA,Union City #2,N,Alameda,5814,CA,37.598999999999997,-122.05200000000001,,,BA,,6,,Union City,94587,8065 
SFB,CC,9414863-Richmond,N,Contra Costa,5988,CA,37.927999999999997,-122.40000000000001,,,BA,,6,,Richmond,,58 
SFB,CC,Black Diamond,N,Contra Costa,3296,CA,37.950000000000003,-121.884444,,,BA,RBKD,421,RAWS Station CA4130E6,Brentwood,94513,8718 
SFB,CC,Briones,N,Contra Costa,3297,CA,37.934167000000002,-122.117778,,,YS,RBNE,272,RAWS Station CA414676,Lafayette,94549,8759 
SFB,CC,Buchanan Field,N,Contra Costa,5292,CA,37.991700000000002,-122.05200000000001,,,BA,KCCR,6,,Concord,94520,10165 
SFB,CC,Concord #3,N,Contra Costa,5813,CA,38.003999999999998,-122.02,,,BA,,46,,Concord,94519,8710 
SFB,CC,El Cerrito,N,Contra Costa,7508,CA,37.931547000000002,-122.30271399999999,,,BA,213,596,,,,8654 
SFB,CC,Las Trampas,N,Contra Costa,3299,CA,37.833888999999999,-122.06694400000001,,,BA,RLTR,533,RAWS Station CA415500,Lafayette,94549,8759 
SFB,CC,Mallory Ridge,N,Contra Costa,3629,CA,37.810000000000002,-121.77,,,BA,RMAL,551,,Brentwood,94513,8758 
SFB,CC,Moraga,N,Contra Costa,5820,CA,37.838000000000001,-122.139,,,BA,,156,,Moraga,94556,8743 
SFB,CC,Oakland North,N,Contra Costa,3298,CA,37.866943999999997,-122.216944,,,BA,RONO,396,RAWS Station CA4A06D4,Orinda,94563,8743 
SFB,MRN,Barnaby,N,Marin,4678,CA,38.028100000000002,-122.702,,,BA,,239,,Lagunitas-Forest Knolls,94963,8757 
SFB,MRN,Big Rock,N,Marin,5894,CA,38.039400000000001,-122.56999999999999,,,BA,,323,,Lucas Valley-Marinwood,94903,8754 
SFB,MRN,Black Point,N,Marin,5826,CA,38.091000000000001,-122.527,,,BA,,0,,Novato,94945,8736 
SFB,MRN,Point San Pedro,N,Marin,5801,CA,37.991999999999997,-122.47,,,BA,,4,,San Rafael,94901,8717 
SFB,NAP,Carneros,N,Napa,5760,CA,38.219000000000001,-122.354,,,BA,,3,,Napa,94559,8737 
SFB,NAP,Napa County Airport,N,Napa,5283,CA,38.207500000000003,-122.279,,,BA,KAPC,5,,Napa,94558,11651 
SFB,SF,San Francisco #6,N,San Francisco,6946,CA,37.810000000000002,-122.47,,,BA,,0,,San Francisco,,78 
SFB,SM,La Honda,N,San Mateo,3305,CA,37.32,-122.273889,,,BA,RLHO,121,RAWS Station CA22B3CE,Redwood City,94062,8539 
SFB,SM,Palo Alto Airport,N,San Mateo,5346,CA,37.466700000000003,-122.117,,,BA,KPAO,1,,East Palo Alto,94303,3104 
SFB,SM,San Carlos Airport,N,San Mateo,5375,CA,37.5167,-122.25,,,BA,KSQL,2,,San Carlos,94070,21240 
SFB,SM,San Francisco International Airport,N,San Mateo,5366,CA,37.619700000000002,-122.36499999999999,,,BA,KSFO,2,,San Francisco,94128,11345 
SFB,SM,Spring Valley,N,San Mateo,3652,CA,37.560000000000002,-122.43000000000001,,,BA,RSPR,256,,Half Moon Bay,94019,8750 
SFB,SM,Tiburon Pier,N,San Mateo,5990,CA,37.890999999999998,-122.447,,,BA,,10,,Tiburon,,9 
SFB,SCL,Los Altos,N,Santa Clara,3437,CA,37.358055999999998,-122.147222,,,BA,RLSA,202,RAWS Station CA41F5F8,Los Altos Hills,94022,8759 
SFB,SCL,Los Gatos (RAWS),N,Santa Clara,3571,CA,37.202778000000002,-121.942778,,,BA,RLGT,686,RAWS Station CA4A56A8,Los Gatos,95032,8758 
SFB,SCL,Moffett Field,N,Santa Clara,5337,CA,37.405799999999999,-122.048,,,BA,KNUQ,10,,Mountain View,94035,9881 
SFB,SCL,Poverty,N,Santa Clara,4763,CA,37.443100000000001,-121.771,,,BA,,623,,Milpitas,95035,8745 
SFB,SCL,San Jose International Airport,N,Santa Clara,2157,CA,37.350000000000001,-121.91666600000001,,,BA,KSJC,20,,San Jose,95110,9471 
SFB,SCL,San Jose-Jackson Street Humd,N,Santa Clara,3661,CA,37.348488000000003,-121.894936,060850005,43383,BA,,27,156B Jackson Street,San Jose                        ,95112,8382 
SFB,SCL,San Jose - Reid - Hillvale,N,Santa Clara,5355,CA,37.333300000000001,-121.81699999999999,,,BA,KRHV,39,,San Jose,95122,5247 
SFB,SON,Novato-Gnoss Field,N,Sonoma,6000,CA,38.144500000000001,-122.5581,,,BA,KDVO,1,,Novato,,25656 
SFB,,Half Moon Bay Airport,N,,6006,CA,37.517000000000003,-122.5,,,BA,KHAF,2,,Half Moon Bay,,37673